{
  "type": "FeatureCollection",
  "name": "13-STC-authoritative-263.07-rai",
  "features": [
    {
      "type": "Feature",
      "properties": {
        "plot_id": "13-STC",
        "province": "Rayong",
        "tambon": "Noen Kho",
        "amphoe": "Klaeng",
        "source": "STC_VSD_EVR(1).kmz",
        "source_record": "ยืนยันกรม",
        "reported_area_rai": 263.07,
        "reference_point_lat": 12.707884,
        "reference_point_lon": 101.693164
      },
      "geometry": {
        "type": "Polygon",
        "coordinates": [
          [
            [101.6887434306554,12.71200259508477],[101.6882882901711,12.71072440320329],[101.6900447835767,12.71007063250507],[101.6900462530278,12.71007884020723],[101.689929028796,12.71021280047611],[101.6883332521545,12.71076358776715],[101.6886984907901,12.71187567353642],[101.68869291234,12.71179653024534],[101.6883964900036,12.71079788933356],[101.6884929880898,12.71072353745106],[101.690104381624,12.71019122765106],[101.6905109353072,12.71128307904661],[101.6911612144237,12.71321220446032],[101.6911895856915,12.71320260243827],[101.690559422772,12.71126861144723],[101.6902506828348,12.71033998479145],[101.6900912681722,12.71007255650937],[101.690060857895,12.70997299587038],[101.6893846363489,12.70946564157214],[101.6893486673357,12.70931692070582],[101.6894652999556,12.70901407869321],[101.6908445258776,12.70648899596465],[101.6910090645991,12.70645471375636],[101.6929521775259,12.7074587529398],[101.6944741278355,12.70823528423761],[101.6945081352513,12.70819766500404],[101.6929682078429,12.7074038450481],[101.6909239984548,12.70637521201009],[101.6912990142593,12.70571218744695],[101.6912305138166,12.70568492298199],[101.690814675038,12.70647066209059],[101.6894402532986,12.70900407034942],[101.6893138498506,12.70927767854011],[101.6893372492124,12.70947194016476],[101.6900289219432,12.70998205572337],[101.6900376847376,12.71003098901017],[101.6895111196136,12.70975440837343],[101.6891682186579,12.70952300705554],[101.6878894833115,12.7086777593149],[101.6882714480309,12.70824929417856],[101.6893128206479,12.70752505658812],[101.6899210899313,12.70674197362178],[101.6907266339984,12.70546905987509],[101.6944294083251,12.70669619387007],[101.6969908036362,12.70875696019166],[101.6973608336603,12.70894290511631],[101.6974599932926,12.70961943154074],[101.6973405747416,12.7096387144068],[101.6945466176959,12.70821268555736],[101.6932024717488,12.71076485242166],[101.689686766737,12.70895764651818],[101.6895408859732,12.709085600734],[101.6909940615965,12.70989293269633],[101.6924680270048,12.71092588965936],[101.692878670676,12.711472781719],[101.6928710886906,12.71162643396913],[101.6920977771907,12.71246540366782],[101.6919278161317,12.71292785609142],[101.6910662646184,12.71325279116164],[101.6911888268082,12.71353159572841],[101.6903019528878,12.71407359848491],[101.6900237649195,12.71474492792737],[101.6896484284406,12.71492941533134],[101.6887434306554,12.71200259508477]
          ],
          [
            [101.6891380455398,12.7127755032549],[101.6895693459144,12.71266271997311],[101.6896696995437,12.71258039674314],[101.6899174573694,12.71251464504456],[101.6898975335834,12.71237030558723],[101.6890904243739,12.71262241085398],[101.6891380455398,12.7127755032549]
          ]
        ]
      }
    }
  ]
}
